NOAA 1 [-]              
1 04793U 70106A   13082.48051829 -.00000043  00000-0  20332-4 0  5851
2 04793 102.0291 119.2240 0031712 341.7880 154.2962 12.53956143935290
NOAA 2 [-]              
1 06235U 72082A   13082.53899921 -.00000065  00000-0 -13966-3 0  6847
2 06235 101.4581  67.3216 0004168 110.3612 359.7929 12.53034962849725
NOAA 3 [-]              
1 06920U 73086A   13082.52048076 -.00000065  00000-0 -16264-3 0  5763
2 06920 101.7345  74.0424 0006933  98.4292  47.3282 12.40334227782782
NOAA 4 [-]              
1 07529U 74089A   13082.50744454 -.00000060  00000-0 -10951-3 0  5867
2 07529 101.4383  75.3239 0009185 145.8788 359.8954 12.53080951754304
NOAA 5 [-]              
1 09057U 76077A   13082.52581249 -.00000055  00000-0 -89969-4 0  4653
2 09057 101.7577 101.0222 0009280 302.3693 212.6541 12.37776648656643
TIROS N [P]             
1 11060U 78096A   13082.64998378  .00000049  00000-0  46777-4 0  3033
2 11060  99.0476  92.6856 0011502  68.6458  37.8000 14.17755947993826
NOAA 6 [P]              
1 11416U 79057A   13082.53163892  .00000177  00000-0  81190-4 0  4579
2 11416  98.4397  77.0317 0011343 142.4140 325.7690 14.32468577758568
NOAA 7 [-]              
1 12553U 81059A   13082.48818130  .00000002  00000-0  23171-4 0  5486
2 12553  98.8396  34.1100 0011045 345.8300 120.8336 14.16937790640273
NOAA 8 [-]              
1 13923U 83022A   13082.51559347  .00000108  00000-0  60721-4 0  4619
2 13923  98.4601  96.8545 0015790  35.6512 117.6712 14.27976100561104
NOAA 9 [P]              
1 15427U 84123A   13082.52374808  .00000104  00000-0  74712-4 0  3600
2 15427  98.6142  40.0687 0015908  67.2953  45.2790 14.15565564459514
NOAA 10 [-]             
1 16969U 86073A   13082.40020990  .00000065  00000-0  44023-4 0  2871
2 16969  98.5535 112.0758 0013365 134.9287 272.0785 14.27622039379707
NOAA 11 [-]             
1 19531U 88089A   13082.46865924 -.00000010  00000-0  16997-4 0  2902
2 19531  98.7126 167.5144 0012173 143.5659 283.2615 14.15006185264009
NOAA 12 [-]             
1 21263U 91032A   13082.50199797  .00000025  00000-0  29348-4 0  7636
2 21263  98.7043 108.5382 0014971 109.3670  51.6542 14.25552384136341
NOAA 13 [-]             
1 22739U 93050A   13082.26921657  .00000133  00000-0  95785-4 0  2901
2 22739  98.7496 160.5216 0008573 258.6187 133.3858 14.12391020 11050
NOAA 14 [-]             
1 23455U 94089A   13082.45901407  .00000087  00000-0  68840-4 0  2485
2 23455  98.8042 168.1898 0008757 236.9125 251.9355 14.13897021940254
NOAA 15 [P]             
1 25338U 98030A   13082.51452943  .00000074  00000-0  50181-4 0  6669
2 25338  98.7200  73.2097 0010835  23.4528 122.6900 14.25190562772638
NOAA 16 [P]             
1 26536U 00055A   13082.44915736  .00000059  00000-0  56049-4 0  1427
2 26536  99.0524 134.3256 0010526  23.3214 101.7924 14.12851802644466
NOAA 17 [P]             
1 27453U 02032A   13082.46766439  .00000082  00000-0  52886-4 0   687
2 27453  98.3167 101.0800 0012542  61.9284  89.8378 14.24545322558510
NOAA 18 [+]             
1 28654U 05018A   13082.95573516  .00000242  00000-0  15764-3 0  5499
2 28654  99.0914  49.9894 0015397  89.1252 303.4089 14.11785340404036
NOAA 19 [+]             
1 33591U 09005A   13082.47428481  .00000241  00000-0  15707-3 0  7377
2 33591  98.8977  25.2458 0013235 315.2629 152.6609 14.11472575212404
NPP [+]                 
1 37849U 11061A   13083.15675892  .00000058  00000-0  48185-4 0  4479
2 37849  98.7471  22.6938 0000506  70.2997  43.6179 14.19532528 72755
